{"fetched_at":"2026-07-17T06:38:36.421Z","source":"https://celestrak.org/NORAD/elements/gp.php?NAME=SPACEMOBILE&FORMAT=JSON","constellation":"ast-spacemobile","records":[{"OBJECT_NAME":"SPACEMOBILE-003","OBJECT_ID":"2024-163A","EPOCH":"2026-07-16T07:56:05.515296","CLASSIFICATION_TYPE":"U","MEAN_MOTION":15.20707825,"ECCENTRICITY":0.0004666,"INCLINATION":52.9669,"RA_OF_ASC_NODE":175.4223,"ARG_OF_PERICENTER":197.1452,"MEAN_ANOMALY":162.9385,"EPHEMERIS_TYPE":0,"NORAD_CAT_ID":61045,"ELEMENT_SET_NO":999,"REV_AT_EPOCH":10220,"BSTAR":0.000059791,"MEAN_MOTION_DOT":0.00001005,"MEAN_MOTION_DDOT":0},{"OBJECT_NAME":"SPACEMOBILE-005","OBJECT_ID":"2024-163B","EPOCH":"2026-07-16T18:34:42.553632","CLASSIFICATION_TYPE":"U","MEAN_MOTION":15.20721879,"ECCENTRICITY":0.0008608,"INCLINATION":52.9761,"RA_OF_ASC_NODE":173.3331,"ARG_OF_PERICENTER":200.3156,"MEAN_ANOMALY":159.7497,"EPHEMERIS_TYPE":0,"NORAD_CAT_ID":61046,"ELEMENT_SET_NO":999,"REV_AT_EPOCH":10226,"BSTAR":0.00011848,"MEAN_MOTION_DOT":0.00002313,"MEAN_MOTION_DDOT":0},{"OBJECT_NAME":"SPACEMOBILE-001","OBJECT_ID":"2024-163C","EPOCH":"2026-07-16T09:04:28.188192","CLASSIFICATION_TYPE":"U","MEAN_MOTION":15.20742349,"ECCENTRICITY":0.0007107,"INCLINATION":52.9728,"RA_OF_ASC_NODE":174.8637,"ARG_OF_PERICENTER":197.087,"MEAN_ANOMALY":162.9886,"EPHEMERIS_TYPE":0,"NORAD_CAT_ID":61047,"ELEMENT_SET_NO":999,"REV_AT_EPOCH":10220,"BSTAR":0.000019358,"MEAN_MOTION_DOT":0.00000103,"MEAN_MOTION_DDOT":0},{"OBJECT_NAME":"SPACEMOBILE-002","OBJECT_ID":"2024-163D","EPOCH":"2026-07-16T07:06:33.943680","CLASSIFICATION_TYPE":"U","MEAN_MOTION":15.20776804,"ECCENTRICITY":0.0005866,"INCLINATION":52.9781,"RA_OF_ASC_NODE":175.2802,"ARG_OF_PERICENTER":196.1533,"MEAN_ANOMALY":163.9275,"EPHEMERIS_TYPE":0,"NORAD_CAT_ID":61048,"ELEMENT_SET_NO":999,"REV_AT_EPOCH":10219,"BSTAR":-0.000034612,"MEAN_MOTION_DOT":-0.000011,"MEAN_MOTION_DDOT":0},{"OBJECT_NAME":"SPACEMOBILE-004","OBJECT_ID":"2024-163E","EPOCH":"2026-07-15T14:55:07.061664","CLASSIFICATION_TYPE":"U","MEAN_MOTION":15.20780797,"ECCENTRICITY":0.00065792,"INCLINATION":52.9675,"RA_OF_ASC_NODE":178.1586,"ARG_OF_PERICENTER":225.4338,"MEAN_ANOMALY":134.612,"EPHEMERIS_TYPE":0,"NORAD_CAT_ID":61049,"ELEMENT_SET_NO":999,"REV_AT_EPOCH":10209,"BSTAR":0.00055840965,"MEAN_MOTION_DOT":0.0001216,"MEAN_MOTION_DDOT":0},{"OBJECT_NAME":"SPACEMOBILE-006","OBJECT_ID":"2025-309A","EPOCH":"2026-07-16T09:29:27.795840","CLASSIFICATION_TYPE":"U","MEAN_MOTION":15.18656625,"ECCENTRICITY":0.0009991,"INCLINATION":52.9935,"RA_OF_ASC_NODE":197.8358,"ARG_OF_PERICENTER":219.1469,"MEAN_ANOMALY":140.8802,"EPHEMERIS_TYPE":0,"NORAD_CAT_ID":67232,"ELEMENT_SET_NO":999,"REV_AT_EPOCH":3103,"BSTAR":0.000058828,"MEAN_MOTION_DOT":0.00000913,"MEAN_MOTION_DDOT":0},{"OBJECT_NAME":"SPACEMOBILE-008","OBJECT_ID":"2026-139A","EPOCH":"2026-07-16T05:02:13.898112","CLASSIFICATION_TYPE":"U","MEAN_MOTION":15.128027,"ECCENTRICITY":0.0005109,"INCLINATION":52.9949,"RA_OF_ASC_NODE":130.8006,"ARG_OF_PERICENTER":58.8976,"MEAN_ANOMALY":301.2516,"EPHEMERIS_TYPE":0,"NORAD_CAT_ID":69589,"ELEMENT_SET_NO":999,"REV_AT_EPOCH":437,"BSTAR":0.000024228,"MEAN_MOTION_DOT":0.00000129,"MEAN_MOTION_DDOT":0},{"OBJECT_NAME":"SPACEMOBILE-009","OBJECT_ID":"2026-139B","EPOCH":"2026-07-16T19:21:25.791264","CLASSIFICATION_TYPE":"U","MEAN_MOTION":15.12696684,"ECCENTRICITY":0.000536,"INCLINATION":52.994,"RA_OF_ASC_NODE":128.1083,"ARG_OF_PERICENTER":56.2913,"MEAN_ANOMALY":303.8588,"EPHEMERIS_TYPE":0,"NORAD_CAT_ID":69590,"ELEMENT_SET_NO":999,"REV_AT_EPOCH":446,"BSTAR":0.00003141,"MEAN_MOTION_DOT":0.00000255,"MEAN_MOTION_DDOT":0},{"OBJECT_NAME":"SPACEMOBILE-010","OBJECT_ID":"2026-139C","EPOCH":"2026-07-16T13:05:33.715968","CLASSIFICATION_TYPE":"U","MEAN_MOTION":15.12529797,"ECCENTRICITY":0.0005295,"INCLINATION":52.9947,"RA_OF_ASC_NODE":129.3312,"ARG_OF_PERICENTER":47.6592,"MEAN_ANOMALY":312.4847,"EPHEMERIS_TYPE":0,"NORAD_CAT_ID":69591,"ELEMENT_SET_NO":999,"REV_AT_EPOCH":443,"BSTAR":0.000041587,"MEAN_MOTION_DOT":0.00000432,"MEAN_MOTION_DDOT":0}]}
